
# Worst residual: 1.34 km
# MJD 58020.000000 (2017 Sep 24  0:00)
2011-037A = Spektr-R = NORAD 37755
1 37755U 11037A   17267.49919926  .00000000  00000-0  00000-0 0   475
2 37755 068.5190 305.0572 6244972 352.2888 195.7205 00.10462186    07

# Worst residual: 6.74 km
# MJD 58021.000000 (2017 Sep 25  0:00)
2011-037A = Spektr-R = NORAD 37755
1 37755U 11037A   17268.49919926  .00000000  00000-0  00000-0 0   476
2 37755 068.4737 305.0381 6249029 352.3441 233.3384 00.10460065    06

# Worst residual: 16.83 km
# MJD 58022.000000 (2017 Sep 26  0:00)
2011-037A = Spektr-R = NORAD 37755
1 37755U 11037A   17269.49919926  .00000000  00000-0  00000-0 0   477
2 37755 068.4357 305.0132 6251870 352.2709 271.2192 00.10435923    04

# Worst residual: 41.62 km
# MJD 58023.000000 (2017 Sep 27  0:00)
2011-037A = Spektr-R = NORAD 37755
1 37755U 11037A   17270.49919926  .00000000  00000-0  00000-0 0   479
2 37755 068.4556 305.0061 6269316 351.8916 309.4931 00.10331629    08

# Worst residual: 185.42 km
# MJD 58024.000000 (2017 Sep 28  0:00)
2011-037A = Spektr-R = NORAD 37755
1 37755U 11037A   17271.49919926  .00000000  00000-0  00000-0 0   470
2 37755 068.5189 305.0283 6381950 351.5438 347.6495 00.09971180    01

# Worst residual: 152.66 km
# MJD 58025.000000 (2017 Sep 29  0:00)
2011-037A = Spektr-R = NORAD 37755
1 37755U 11037A   17272.49919926  .00000000  00000-0  00000-0 0   471
2 37755 068.4901 305.0558 6372639 353.2130 023.2799 00.09997454    05

# Worst residual: 41.68 km
# MJD 58026.000000 (2017 Sep 30  0:00)
2011-037A = Spektr-R = NORAD 37755
1 37755U 11037A   17273.49919926  .00000000  00000-0  00000-0 0   472
2 37755 068.4000 305.1358 6283111 352.8998 061.2175 00.10334141    07

# Worst residual: 18.89 km
# MJD 58027.000000 (2017 Oct  1  0:00)
2011-037A = Spektr-R = NORAD 37755
1 37755U 11037A   17274.49919926  .00000000  00000-0  00000-0 0   473
2 37755 068.3316 305.1601 6277618 352.5861 099.3534 00.10426570    07

# Worst residual: 7.04 km
# MJD 58028.000000 (2017 Oct  2  0:00)
2011-037A = Spektr-R = NORAD 37755
1 37755U 11037A   17275.49919926  .00000000  00000-0  00000-0 0   474
2 37755 068.3380 305.1275 6280976 352.5291 137.2197 00.10448828    00

# Worst residual: 6.26 km
# MJD 58029.000000 (2017 Oct  3  0:00)
2011-037A = Spektr-R = NORAD 37755
1 37755U 11037A   17276.49919926  .00000000  00000-0  00000-0 0   475
2 37755 068.4117 305.0837 6281807 352.6015 174.7873 00.10447806    03

# Worst residual: 12.75 km
# MJD 58030.000000 (2017 Oct  4  0:00)
2011-037A = Spektr-R = NORAD 37755
1 37755U 11037A   17277.49919926  .00000000  00000-0  00000-0 0   476
2 37755 068.4813 305.0614 6281195 352.7524 212.0273 00.10445625    02

# Worst residual: 17.73 km
# MJD 58031.000000 (2017 Oct  5  0:00)
2011-037A = Spektr-R = NORAD 37755
1 37755U 11037A   17278.49919926  .00000000  00000-0  00000-0 0   477
2 37755 068.4567 305.0477 6279947 353.0068 248.9505 00.10461641    06

# Worst residual: 34.33 km
# MJD 58032.000000 (2017 Oct  6  0:00)
2011-037A = Spektr-R = NORAD 37755
1 37755U 11037A   17279.49919926  .00000000  00000-0  00000-0 0   478
2 37755 068.3178 304.9936 6272824 353.4251 285.6676 00.10520206    06

# Worst residual: 68.08 km
# MJD 58033.000000 (2017 Oct  7  0:00)
2011-037A = Spektr-R = NORAD 37755
1 37755U 11037A   17280.49919926  .00000000  00000-0  00000-0 0   470
2 37755 068.1659 304.9069 6232568 353.9514 322.4087 00.10670826    03

# Worst residual: 144.07 km
# MJD 58034.000000 (2017 Oct  8  0:00)
2011-037A = Spektr-R = NORAD 37755
1 37755U 11037A   17281.49919926  .00000000  00000-0  00000-0 0   471
2 37755 068.0727 304.8818 6151233 353.3023 000.5040 00.10848467    08

# Worst residual: 82.44 km
# MJD 58035.000000 (2017 Oct  9  0:00)
2011-037A = Spektr-R = NORAD 37755
1 37755U 11037A   17282.49919926  .00000000  00000-0  00000-0 0   472
2 37755 068.0817 304.7731 6240945 352.5246 038.7856 00.10646631    05

# Worst residual: 45.98 km
# MJD 58036.000000 (2017 Oct 10  0:00)
2011-037A = Spektr-R = NORAD 37755
1 37755U 11037A   17283.49919926  .00000000  00000-0  00000-0 0   473
2 37755 068.1989 304.5903 6286976 353.1203 075.4749 00.10468515    01

# Worst residual: 92.56 km
# MJD 58037.000000 (2017 Oct 11  0:00)
2011-037A = Spektr-R = NORAD 37755
1 37755U 11037A   17284.49919926  .00000000  00000-0  00000-0 0   474
2 37755 068.7275 304.1744 6308429 353.7271 111.7829 00.10394311    08

# Worst residual: 200.53 km
# MJD 58038.000000 (2017 Oct 12  0:00)
2011-037A = Spektr-R = NORAD 37755
1 37755U 11037A   17285.49919926  .00000000  00000-0  00000-0 0   475
2 37755 070.2563 303.5374 6461432 354.5155 146.1038 00.10425186    01

# Worst residual: 192.88 km
# MJD 58039.000000 (2017 Oct 13  0:00)
2011-037A = Spektr-R = NORAD 37755
1 37755U 11037A   17286.49919926  .00000000  00000-0  00000-0 0   476
2 37755 070.3154 303.4969 6844730 355.3379 179.7510 00.10721749    01

# Worst residual: 63.62 km
# MJD 58040.000000 (2017 Oct 14  0:00)
2011-037A = Spektr-R = NORAD 37755
1 37755U 11037A   17287.49919926  .00000000  00000-0  00000-0 0   477
2 37755 069.0368 303.4985 7019897 355.8191 217.5613 00.10890977    02

# Worst residual: 20.86 km
# MJD 58041.000000 (2017 Oct 15  0:00)
2011-037A = Spektr-R = NORAD 37755
1 37755U 11037A   17288.49919926  .00000000  00000-0  00000-0 0   478
2 37755 068.4798 303.3888 7068919 356.0792 256.7191 00.10934689    07

# Worst residual: 21.98 km
# MJD 58042.000000 (2017 Oct 16  0:00)
2011-037A = Spektr-R = NORAD 37755
1 37755U 11037A   17289.49919926  .00000000  00000-0  00000-0 0   479
2 37755 068.2720 303.3012 7086395 356.3621 295.7716 00.10974441    07

# Worst residual: 74.68 km
# MJD 58043.000000 (2017 Oct 17  0:00)
2011-037A = Spektr-R = NORAD 37755
1 37755U 11037A   17290.49919926  .00000000  00000-0  00000-0 0   471
2 37755 068.0756 303.1719 7064054 356.8141 334.5488 00.11140037    01

# Worst residual: 113.25 km
# MJD 58044.000000 (2017 Oct 18  0:00)
2011-037A = Spektr-R = NORAD 37755
1 37755U 11037A   17291.49919926  .00000000  00000-0  00000-0 0   472
2 37755 068.1251 303.0188 7035268 356.2114 014.5907 00.11234165    07

# Worst residual: 34.55 km
# MJD 58045.000000 (2017 Oct 19  0:00)
2011-037A = Spektr-R = NORAD 37755
1 37755U 11037A   17292.49919926  .00000000  00000-0  00000-0 0   473
2 37755 068.1702 303.0603 7097285 356.0922 053.9838 00.11063690    05
